MTI                     
1 26102U 00014A   20127.23302649  .00003857  00000-0  57956-4 0  9996
2 26102  97.5104   7.3135 0008855  32.7391 327.4403 15.55518042117951
CFESAT                  
1 30777U 07006F   20126.72725143  .00002503  00000-0  69925-4 0  9994
2 30777  35.4247 227.6158 0004784 174.3453 185.7328 15.36533506729876
SPIRALE A               
1 33751U 09008C   20126.94813809  .00000085  00000-0  45767-3 0  9994
2 33751   2.0300 253.0973 5379125 253.4882  43.3170  4.58738421159330
SPIRALE B               
1 33752U 09008D   20127.24455861  .00003401  00000-0  64349-3 0  9991
2 33752   1.8280 168.0037 6918855  51.2699 352.6312  2.75656307103636
SAPPHIRE                
1 39088U 13009C   20127.20690323 -.00000002  00000-0  14606-4 0  9992
2 39088  98.4735 329.4484 0012374  54.7876 305.4465 14.34207389376424
